OBJECT_NAME,OBJECT_ID,EPOCH,MEAN_MOTION,ECCENTRICITY,INCLINATION,RA_OF_ASC_NODE,ARG_OF_PERICENTER,MEAN_ANOMALY,EPHEMERIS_TYPE,CLASSIFICATION_TYPE,NORAD_CAT_ID,ELEMENT_SET_NO,REV_AT_EPOCH,BSTAR,MEAN_MOTION_DOT,MEAN_MOTION_DDOT
HAIYANG-2D,2021-043A,2026-06-15T15:06:45.735264,13.83375444,.00114098,65.9994,308.5764,269.2746,90.7015,0,U,48621,999,25633,-.92252831E-4,-.183E-5,0
2021-050D,2021-050D,2026-06-15T15:03:57.028032,15.23317360,.00039451,97.3345,242.6989,269.8483,90.2302,0,U,48843,999,27872,.19880993E-3,.465E-4,0
TYVAK-0173,2021-059P,2026-06-15T04:07:40.664352,14.81884771,.00102863,96.0085,243.0295,45.7955,314.4106,0,U,48892,999,26794,.19427842E-3,.1506E-4,0
MANDRAKE 2 ABLE,2021-059AE,2026-06-15T12:01:08.993856,15.54930280,.00045993,97.7024,356.1566,11.9718,348.1644,0,U,48907,999,27686,.2843043E-3,.18929E-3,0
MANDRAKE 2 BAKER,2021-059AF,2026-06-15T12:02:13.958880,15.59486986,.00030871,97.6995,359.0173,14.0931,346.0410,0,U,48908,999,27703,.30948245E-3,.2444E-3,0
PACE-1,2021-059AG,2026-06-15T12:10:26.622912,15.79590113,.00009487,97.6752,4.4591,269.6709,90.4448,0,U,48909,999,27753,.42405482E-3,.77377E-3,0
YAM-3,2021-059AN,2026-06-15T13:56:38.896800,15.48526335,.00050945,97.6985,353.4309,16.1258,344.0153,0,U,48915,999,27674,.18701552E-3,.9857E-4,0
FARADAY_PHOENIX,2021-059AX,2026-06-15T12:06:04.434336,15.78077416,.00027977,97.6800,4.3456,305.4038,54.6966,0,U,48924,999,27739,.69187294E-3,.118648E-2,0
DEMO8 (TENZING),2021-059CA,2026-06-15T12:05:27.752352,15.54939111,.00063772,97.7016,359.7952,2.4129,357.7154,0,U,48951,999,27704,.25694817E-3,.17106E-3,0
NAPA-2,2021-059CN,2026-06-14T07:37:13.255392,15.98951733,.00031023,97.6659,4.0943,239.6762,120.4209,0,U,48963,999,27735,.72326893E-3,.344921E-2,.51611315E-4
FENGYUN 3E,2021-062A,2026-06-15T13:56:34.746144,14.19903098,.00028316,98.7484,170.0068,88.0162,272.1339,0,U,49008,999,25635,-.77622662E-4,-.209E-5,0
ISS (NAUKA),2021-066A,2026-06-15T12:17:49.455744,15.49243792,.000485,51.6337,308.3821,189.0196,171.0706,0,U,49044,999,57114,.14626019E-3,.7685E-4,0
STARLINK-3100,2021-082Q,2026-06-15T08:54:38.367360,14.98330746,.00029644,70.0001,48.1580,270.3357,89.7462,0,U,49144,999,26061,.3604023E-5,-.5E-6,0
CUTE,2021-088D,2026-06-15T05:45:47.459232,15.92661724,.0007657,97.4149,265.3464,230.3432,129.7167,0,U,49263,999,26224,.39922E-3,.135675E-2,.90417E-5
2021-091B,2021-091B,2026-06-15T14:38:53.991168,15.18546291,.00147305,97.4462,354.2093,50.1556,310.0971,0,U,49316,999,25874,.11524139E-3,.2318E-4,0
SDGSAT 1,2021-100A,2026-06-15T14:02:22.410240,15.19923040,.00065166,97.2638,213.5939,306.7300,53.3336,0,U,49387,999,25567,.10148483E-3,.2116E-4,0
TEIKYOSAT-4 (OORURI),2021-102B,2026-06-15T14:18:15.475680,15.09503617,.00105751,97.3671,196.1414,303.0978,56.9235,0,U,49396,999,25248,.89979316E-4,.1382E-4,0
Z-SAT,2021-102E,2026-06-15T14:47:21.168672,15.18254859,.00148425,97.3325,201.9863,250.9259,109.0368,0,U,49399,999,25320,.14402107E-3,.2891E-4,0
HIBARI,2021-102F,2026-06-15T08:56:47.437728,15.31697618,.0011204,97.3237,212.2965,198.1317,161.9527,0,U,49400,999,25391,.27629504E-3,.8396E-4,0
KOSEN-1,2021-102H,2026-06-15T13:38:58.896672,15.26816604,.00130205,97.3183,208.7573,206.3770,153.6808,0,U,49402,999,25377,.22845267E-3,.5962E-4,0
GLOBAL-14,2021-106A,2026-06-15T02:08:30.377472,15.50513646,.00161039,42.0047,303.5470,4.2376,355.8602,0,U,49469,999,25780,.41404721E-3,.24132E-3,0
GAOFEN-3 02,2021-109A,2026-06-15T14:12:26.544960,14.42217002,.0003057,98.4081,174.7111,20.8725,339.2589,0,U,49495,999,24008,.27375027E-4,.47E-6,0
GLOBAL-12,2021-115BA,2026-06-15T09:37:17.630400,15.53502197,.00031852,53.1961,53.1298,65.4182,294.7162,0,U,49772,999,25562,.4400031E-3,.2806E-3,0
GLOBAL-13,2021-115BB,2026-06-14T23:40:27.988320,15.45969997,.00039081,53.1985,65.0498,104.7375,255.4067,0,U,49773,999,25542,.39633876E-3,.19246E-3,0
GLOBAL-17,2021-120A,2026-06-14T23:10:11.156160,15.52154913,.00154557,41.9959,62.5329,242.6217,117.3055,0,U,49949,999,25455,.41711516E-3,.25798E-3,0
GLOBAL-16,2021-120B,2026-06-15T10:14:42.159840,15.50105193,.00134533,41.9958,63.4805,237.5201,122.4343,0,U,49950,999,25457,.35356717E-3,.2022E-3,0
XW-3 (CAS-9),2021-131B,2026-06-15T14:19:24.176640,14.41356573,.00053668,98.4985,258.9948,100.4652,259.7142,0,U,50466,999,23488,.16137368E-3,.478E-5,0
ION SCV-004,2022-002K,2026-06-15T14:24:11.513664,15.30438746,.00073538,97.2836,224.2885,13.5010,346.6426,0,U,50993,999,24505,.16013147E-3,.4641E-4,0
ETV-A1,2022-002CE,2026-06-15T14:02:12.012864,15.40653839,.00046946,97.2881,232.8946,9.6444,350.4892,0,U,51060,999,24559,.23324041E-3,.9428E-4,0
BRO-5,2022-002CF,2026-06-15T13:40:08.366592,15.47286854,.00037548,97.3001,240.2238,338.3993,21.7098,0,U,51061,999,24600,.49627779E-3,.25264E-3,0
