HAIYANG-2D              
1 48621U 21043A   26166.62969601 -.00000183  00000+0 -92253-4 0  9999
2 48621  65.9994 308.5764 0011409 269.2746  90.7015 13.83375444256332
2021-050D               
1 48843U 21050D   26166.62774338  .00004650  00000+0  19881-3 0  9990
2 48843  97.3345 242.6989 0003945 269.8483  90.2302 15.23317360278724
TYVAK-0173              
1 48892U 21059P   26166.17199843  .00001506  00000+0  19428-3 0  9999
2 48892  96.0085 243.0295 0010286  45.7955 314.4106 14.81884771267944
MANDRAKE 2 ABLE         
1 48907U 21059AE  26166.50079854  .00018929  00000+0  28430-3 0  9992
2 48907  97.7024 356.1566 0004599  11.9718 348.1644 15.54930280276861
MANDRAKE 2 BAKER        
1 48908U 21059AF  26166.50155045  .00024440  00000+0  30948-3 0  9992
2 48908  97.6995 359.0173 0003087  14.0931 346.0410 15.59486986277038
PACE-1                  
1 48909U 21059AG  26166.50725258  .00077377  00000+0  42405-3 0  9990
2 48909  97.6752   4.4591 0000948 269.6709  90.4448 15.79590113277535
YAM-3                   
1 48915U 21059AN  26166.58100575  .00009857  00000+0  18702-3 0  9995
2 48915  97.6985 353.4309 0005094  16.1258 344.0153 15.48526335276749
FARADAY_PHOENIX         
1 48924U 21059AX  26166.50421799  .00118648  00000+0  69187-3 0  9993
2 48924  97.6800   4.3456 0002797 305.4038  54.6966 15.78077416277399
DEMO8 (TENZING)         
1 48951U 21059CA  26166.50379343  .00017106  00000+0  25695-3 0  9993
2 48951  97.7016 359.7952 0006377   2.4129 357.7154 15.54939111277041
NAPA-2                  
1 48963U 21059CN  26165.31751453  .00344921  51611-4  72327-3 0  9991
2 48963  97.6659   4.0943 0003102 239.6762 120.4209 15.98951733277358
FENGYUN 3E              
1 49008U 21062A   26166.58095771 -.00000209  00000+0 -77623-4 0  9996
2 49008  98.7484 170.0068 0002831  88.0162 272.1339 14.19903098256356
ISS (NAUKA)             
1 49044U 21066A   26166.51237796  .00007685  00000+0  14626-3 0  9994
2 49044  51.6337 308.3821 0004850 189.0196 171.0706 15.49243792571140
STARLINK-3100           
1 49144U 21082Q   26166.37127740 -.00000050  00000+0  36040-5 0  9990
2 49144  70.0001  48.1580 0002964 270.3357  89.7462 14.98330746260612
CUTE                    
1 49263U 21088D   26166.24013263  .00135675  90417-5  39922-3 0  9996
2 49263  97.4149 265.3464 0007657 230.3432 129.7167 15.92661724262244
2021-091B               
1 49316U 21091B   26166.61034712  .00002318  00000+0  11524-3 0  9990
2 49316  97.4462 354.2093 0014730  50.1556 310.0971 15.18546291258749
SDGSAT 1                
1 49387U 21100A   26166.58498160  .00002116  00000+0  10148-3 0  9993
2 49387  97.2638 213.5939 0006516 306.7300  53.3336 15.19923040255679
TEIKYOSAT-4 (OORURI)    
1 49396U 21102B   26166.59601245  .00001382  00000+0  89979-4 0  9999
2 49396  97.3671 196.1414 0010575 303.0978  56.9235 15.09503617252488
Z-SAT                   
1 49399U 21102E   26166.61621723  .00002891  00000+0  14402-3 0  9992
2 49399  97.3325 201.9863 0014842 250.9259 109.0368 15.18254859253202
HIBARI                  
1 49400U 21102F   26166.37277127  .00008396  00000+0  27630-3 0  9996
2 49400  97.3237 212.2965 0011204 198.1317 161.9527 15.31697618253913
KOSEN-1                 
1 49402U 21102H   26166.56873723  .00005962  00000+0  22845-3 0  9992
2 49402  97.3183 208.7573 0013020 206.3770 153.6808 15.26816604253779
GLOBAL-14               
1 49469U 21106A   26166.08924048  .00024132  00000+0  41405-3 0  9996
2 49469  42.0047 303.5470 0016103   4.2376 355.8602 15.50513646257803
GAOFEN-3 02             
1 49495U 21109A   26166.59197390  .00000047  00000+0  27375-4 0  9996
2 49495  98.4081 174.7111 0003057  20.8725 339.2589 14.42217002240080
GLOBAL-12               
1 49772U 21115BA  26166.40089850  .00028060  00000+0  44000-3 0  9990
2 49772  53.1961  53.1298 0003185  65.4182 294.7162 15.53502197255626
GLOBAL-13               
1 49773U 21115BB  26165.98643505  .00019246  00000+0  39634-3 0  9999
2 49773  53.1985  65.0498 0003908 104.7375 255.4067 15.45969997255423
GLOBAL-17               
1 49949U 21120A   26165.96540690  .00025798  00000+0  41712-3 0  9998
2 49949  41.9959  62.5329 0015455 242.6217 117.3055 15.52154913254554
GLOBAL-16               
1 49950U 21120B   26166.42687685  .00020220  00000+0  35357-3 0  9991
2 49950  41.9958  63.4805 0013453 237.5201 122.4343 15.50105193254579
XW-3 (CAS-9)            
1 50466U 21131B   26166.59680760  .00000478  00000+0  16137-3 0  9990
2 50466  98.4985 258.9948 0005366 100.4652 259.7142 14.41356573234883
ION SCV-004             
1 50993U 22002K   26166.60013326  .00004641  00000+0  16013-3 0  9992
2 50993  97.2836 224.2885 0007353  13.5010 346.6426 15.30438746245050
ETV-A1                  
1 51060U 22002CE  26166.58486126  .00009428  00000+0  23324-3 0  9998
2 51060  97.2881 232.8946 0004694   9.6444 350.4892 15.40653839245593
BRO-5                   
1 51061U 22002CF  26166.56954128  .00025264  00000+0  49628-3 0  9990
2 51061  97.3001 240.2238 0003754 338.3993  21.7098 15.47286854246002
